STARLINK-32443          
1 61672U 24193M   26068.26730763 -.00000121  00000+0  80296-5 0  9991
2 61672  53.1593  92.8475 0001230  85.3759 274.7383 15.30193882 76465
TEVEL2-1                
1 63217U 25052H   26068.64782323  .00020683  00000+0  70600-3 0  9994
2 63217  97.3991 324.7682 0004767 104.8919 255.2849 15.30341923 54855
